{
  "type": "FeatureCollection",
  "features": [
    {
      "type": "Feature",
      "properties": {
        "norad_id": 34911,
        "name": "COSMOS 2251 DEB",
        "group": "cosmos-2251-debris",
        "lat": -49.252362827116464,
        "lon": 103.89589927764433,
        "alt_km": 757.2340265560979,
        "timestamp": "2025-12-02T08:59:33.110280+00:00",
        "meta_object_name": "COSMOS 2251 DEB",
        "meta_object_id": "1993-036ADG",
        "meta_epoch": "2025-12-01T06:17:35.547072",
        "meta_mean_motion": 14.59338789,
        "meta_eccentricity": 0.00830651,
        "meta_inclination": 74.0415,
        "meta_ra_of_asc_node": 266.6175,
        "meta_arg_of_pericenter": 35.0192,
        "meta_mean_anomaly": 115.113,
        "meta_ephemeris_type": 0,
        "meta_classification_type": "U",
        "meta_norad_cat_id": 34911,
        "meta_element_set_no": 999,
        "meta_rev_at_epoch": 88419,
        "meta_bstar": 0.00022765686,
        "meta_mean_motion_dot": 1.098e-05,
        "meta_mean_motion_ddot": 0,
        "tle_line1": "1 34911U 93036ADG 25335.26221698  .00001098  00000+0  22766-3 0  9996",
        "tle_line2": "2 34911  74.0415 266.6175 0083065  35.0192 115.1130 14.59338789884195"
      },
      "geometry": {
        "type": "Point",
        "coordinates": [
          103.89589927764433,
          -49.252362827116464
        ]
      }
    },
    {
      "type": "Feature",
      "properties": {
        "norad_id": 34913,
        "name": "COSMOS 2251 DEB",
        "group": "cosmos-2251-debris",
        "lat": 69.45516102011962,
        "lon": -8.668502274185217,
        "alt_km": 755.9512593242116,
        "timestamp": "2025-12-02T08:59:33.110290+00:00",
        "meta_object_name": "COSMOS 2251 DEB",
        "meta_object_id": "1993-036ADJ",
        "meta_epoch": "2025-12-01T14:46:42.078720",
        "meta_mean_motion": 14.34631469,
        "meta_eccentricity": 0.00199745,
        "meta_inclination": 74.0272,
        "meta_ra_of_asc_node": 302.8831,
        "meta_arg_of_pericenter": 56.4339,
        "meta_mean_anomaly": 62.4008,
        "meta_ephemeris_type": 0,
        "meta_classification_type": "U",
        "meta_norad_cat_id": 34913,
        "meta_element_set_no": 999,
        "meta_rev_at_epoch": 65028,
        "meta_bstar": 6.1128931e-05,
        "meta_mean_motion_dot": 1.47e-06,
        "meta_mean_motion_ddot": 0,
        "tle_line1": "1 34913U 93036ADJ 25335.61576480  .00000147  00000+0  61129-4 0  9990",
        "tle_line2": "2 34913  74.0272 302.8831 0019974  56.4339  62.4008 14.34631469650281"
      },
      "geometry": {
        "type": "Point",
        "coordinates": [
          -8.668502274185217,
          69.45516102011962
        ]
      }
    },
    {
      "type": "Feature",
      "properties": {
        "norad_id": 34918,
        "name": "COSMOS 2251 DEB",
        "group": "cosmos-2251-debris",
        "lat": -38.90649347548876,
        "lon": -39.926526085100235,
        "alt_km": 673.3766359221972,
        "timestamp": "2025-12-02T08:59:33.110301+00:00",
        "meta_object_name": "COSMOS 2251 DEB",
        "meta_object_id": "1993-036ADP",
        "meta_epoch": "2025-12-01T06:57:35.152416",
        "meta_mean_motion": 14.60834057,
        "meta_eccentricity": 0.003424,
        "meta_inclination": 74.0713,
        "meta_ra_of_asc_node": 335.4669,
        "meta_arg_of_pericenter": 304.5466,
        "meta_mean_anomaly": 72.5214,
        "meta_ephemeris_type": 0,
        "meta_classification_type": "U",
        "meta_norad_cat_id": 34918,
        "meta_element_set_no": 999,
        "meta_rev_at_epoch": 65169,
        "meta_bstar": 0.0024563,
        "meta_mean_motion_dot": 0.00012096,
        "meta_mean_motion_ddot": 0,
        "tle_line1": "1 34918U 93036ADP 25335.28999019  .00012096  00000+0  24563-2 0  9990",
        "tle_line2": "2 34918  74.0713 335.4669 0034240 304.5466  72.5214 14.60834057651692"
      },
      "geometry": {
        "type": "Point",
        "coordinates": [
          -39.926526085100235,
          -38.90649347548876
        ]
      }
    },
    {
      "type": "Feature",
      "properties": {
        "norad_id": 34924,
        "name": "COSMOS 2251 DEB",
        "group": "cosmos-2251-debris",
        "lat": -3.960305730690625,
        "lon": 108.08554465840592,
        "alt_km": 733.581667925102,
        "timestamp": "2025-12-02T08:59:33.110311+00:00",
        "meta_object_name": "COSMOS 2251 DEB",
        "meta_object_id": "1993-036ADV",
        "meta_epoch": "2025-12-01T10:14:55.790304",
        "meta_mean_motion": 14.59837212,
        "meta_eccentricity": 0.00554576,
        "meta_inclination": 74.0395,
        "meta_ra_of_asc_node": 111.0276,
        "meta_arg_of_pericenter": 198.2315,
        "meta_mean_anomaly": 219.2555,
        "meta_ephemeris_type": 0,
        "meta_classification_type": "U",
        "meta_norad_cat_id": 34924,
        "meta_element_set_no": 999,
        "meta_rev_at_epoch": 87558,
        "meta_bstar": 0.0014681472,
        "meta_mean_motion_dot": 7.15e-05,
        "meta_mean_motion_ddot": 0,
        "tle_line1": "1 34924U 93036ADV 25335.42703461  .00007150  00000+0  14681-2 0  9992",
        "tle_line2": "2 34924  74.0395 111.0276 0055457 198.2315 219.2555 14.59837212875589"
      },
      "geometry": {
        "type": "Point",
        "coordinates": [
          108.08554465840592,
          -3.960305730690625
        ]
      }
    },
    {
      "type": "Feature",
      "properties": {
        "norad_id": 34944,
        "name": "COSMOS 2251 DEB",
        "group": "cosmos-2251-debris",
        "lat": 4.5105771589726125,
        "lon": -107.94606846113233,
        "alt_km": 858.6266965770365,
        "timestamp": "2025-12-02T08:59:33.110322+00:00",
        "meta_object_name": "COSMOS 2251 DEB",
        "meta_object_id": "1993-036ADX",
        "meta_epoch": "2025-11-29T02:52:15.324384",
        "meta_mean_motion": 14.1413005,
        "meta_eccentricity": 0.02197265,
        "meta_inclination": 73.749,
        "meta_ra_of_asc_node": 256.6053,
        "meta_arg_of_pericenter": 106.5861,
        "meta_mean_anomaly": 255.9534,
        "meta_ephemeris_type": 0,
        "meta_classification_type": "U",
        "meta_norad_cat_id": 34944,
        "meta_element_set_no": 999,
        "meta_rev_at_epoch": 63890,
        "meta_bstar": 0.00066557018,
        "meta_mean_motion_dot": 1.572e-05,
        "meta_mean_motion_ddot": 0,
        "tle_line1": "1 34944U 93036ADX 25333.11962181  .00001572  00000+0  66557-3 0  9996",
        "tle_line2": "2 34944  73.7490 256.6053 0219726 106.5861 255.9534 14.14130050638905"
      },
      "geometry": {
        "type": "Point",
        "coordinates": [
          -107.94606846113233,
          4.5105771589726125
        ]
      }
    },
    {
      "type": "Feature",
      "properties": {
        "norad_id": 34946,
        "name": "COSMOS 2251 DEB",
        "group": "cosmos-2251-debris",
        "lat": 51.57381793977673,
        "lon": 160.80589275795748,
        "alt_km": 648.6371233397867,
        "timestamp": "2025-12-02T08:59:33.110332+00:00",
        "meta_object_name": "COSMOS 2251 DEB",
        "meta_object_id": "1993-036ADZ",
        "meta_epoch": "2025-11-30T18:38:49.789824",
        "meta_mean_motion": 14.61892999,
        "meta_eccentricity": 0.00492329,
        "meta_inclination": 74.0241,
        "meta_ra_of_asc_node": 5.0332,
        "meta_arg_of_pericenter": 145.8487,
        "meta_mean_anomaly": 214.5864,
        "meta_ephemeris_type": 0,
        "meta_classification_type": "U",
        "meta_norad_cat_id": 34946,
        "meta_element_set_no": 999,
        "meta_rev_at_epoch": 88034,
        "meta_bstar": 0.00052129859,
        "meta_mean_motion_dot": 2.623e-05,
        "meta_mean_motion_ddot": 0,
        "tle_line1": "1 34946U 93036ADZ 25334.77696516  .00002623  00000+0  52130-3 0  9997",
        "tle_line2": "2 34946  74.0241   5.0332 0049232 145.8487 214.5864 14.61892999880347"
      },
      "geometry": {
        "type": "Point",
        "coordinates": [
          160.80589275795748,
          51.57381793977673
        ]
      }
    },
    {
      "type": "Feature",
      "properties": {
        "norad_id": 34949,
        "name": "COSMOS 2251 DEB",
        "group": "cosmos-2251-debris",
        "lat": -59.20511204044852,
        "lon": 101.15778842449437,
        "alt_km": 602.1057529912259,
        "timestamp": "2025-12-02T08:59:33.110342+00:00",
        "meta_object_name": "COSMOS 2251 DEB",
        "meta_object_id": "1993-036AEC",
        "meta_epoch": "2025-12-01T16:59:10.526208",
        "meta_mean_motion": 14.73873554,
        "meta_eccentricity": 0.008048,
        "meta_inclination": 74.0165,
        "meta_ra_of_asc_node": 131.2052,
        "meta_arg_of_pericenter": 278.7598,
        "meta_mean_anomaly": 80.4466,
        "meta_ephemeris_type": 0,
        "meta_classification_type": "U",
        "meta_norad_cat_id": 34949,
        "meta_element_set_no": 999,
        "meta_rev_at_epoch": 88199,
        "meta_bstar": 0.00050423,
        "meta_mean_motion_dot": 3.446e-05,
        "meta_mean_motion_ddot": 0,
        "tle_line1": "1 34949U 93036AEC 25335.70776072  .00003446  00000+0  50423-3 0  9997",
        "tle_line2": "2 34949  74.0165 131.2052 0080480 278.7598  80.4466 14.73873554881994"
      },
      "geometry": {
        "type": "Point",
        "coordinates": [
          101.15778842449437,
          -59.20511204044852
        ]
      }
    }
  ]
}